id,type,name,latitude,longitude,forest_type,fee,opening_hours,address,tel,state,attractions,url,imageUrl
1,Jungle Ecological Park,Bukit Ayer Forest Eco Park,6.5462,100.1668,Hill Dipterocarp Forest,Admission | Citizens | Adults : RM 2.00 | Children (6 - 17 years old) : RM 1.00 | Children (under 6 years old) : FREE | People with Disabilities (OKU) : FREE | Non-citizens | Adults : RM 5.00 | Children (6 - 17 years old) : RM 1.00 | Children (under 6 years old) : FREE | People with Disabilities (OKU) : FREE,Open daily from 9.00 am to 6.00 pm,"Jabatan Perhutanan Negeri Perlis,Km 2 Jalan Kaki Bukit, 01000 Kangar, Perlis",04-9765 966,Perlis,"River, Waterfall, Wildlife, Bird Watching",https://www.forestry.gov.my/en/perlis/taman-eko-rimba-bukit-ayer,https://www.forestry.gov.my/media/zoo/images/bukitayer_1bd2e764e182d8b4d68f06bcaf760b42.jpg
2,Jungle Ecological Park,Tasik Meranti Forest Eco park,6.6479,100.1796,Half of autumn forest,FREE admission,Open daily from 7.00 am to 6.00 pm,"Jabatan Perhutanan Negeri Perlis,Km 2 Jalan Kaki Bukit, 01000 Kangar, Perlis",04-9765 966,Perlis,"Bird Watching, Wildlife, Lake, River",https://www.forestry.gov.my/en/perlis/taman-eko-rimba-tasik-meranti,https://www.forestry.gov.my/media/zoo/images/tasikmeranti_27815341db6c82df856f6ae1e6cd72a9.jpg
3,Jungle Ecological Park,Lata Bayu Forest Eco Park,5.7151,100.8103,Hill Dipterocarp Forest,FREE admission,Open daily from 7.00 am to 6.00 pm,"Pejabat Hutan Daerah Kedah Selatan, 09000 Kulim, Kedah",04-4903 760,Kedah,"River, Waterfall, Wildlife",https://www.forestry.gov.my/en/kedah/taman-eko-rimba-lata-bayu,https://www.forestry.gov.my/media/zoo/images/LataBayu_021380aaef1bc585a1a8ad1b25c91d64.jpg
4,Jungle Ecological Park,Sungai Rambai Forest Eco Park,6.3195,100.4803,Lowland dipterocarp forest,FREE admission,Open daily from 7.00 am to 6.00 pm,"Pejabat Hutan Daerah Kedah Tengah, 08000 Sg. Petani, Kedah",04-4212 835,Kedah,"River, Wildlife",https://www.forestry.gov.my/en/kedah/taman-eko-rimba-sungai-rambai,https://www.forestry.gov.my/media/zoo/images/SungaiRambai_bb3cb4141033155da4541e2731f81ba2.jpg
5,Jungle Ecological Park,Sungai Sedim Forest Eco Park,5.4071,100.66146,Lowland dipterocarp forest,FREE admission,Open daily from 7.00 am to 6.00 pm,"Pejabat Hutan Daerah Kedah Selatan, 09000 Kulim, Kedah",04-4903 760,Kedah,"River, Waterfall, Wildlife, Bird Watching",https://www.forestry.gov.my/en/kedah/taman-eko-rimba-sungai-sedim,https://www.forestry.gov.my/media/zoo/images/SungaiSedim_8ab05a6ac70da3a4684a7808ac1dfc0a.jpg
6,Jungle Ecological Park,Sungai Teroi Eco Park,5.80822,100.4337,Hill Dipterocarp Forest,FREE admission,Open daily from 7.00 am to 6.00 pm,"Pejabat Hutan Daerah Kedah Tengah, 08000 Sg. Petani, Kedah",04-4212 835,Kedah,"River, Wildlife",https://www.forestry.gov.my/en/kedah/taman-eko-rimba-sungai-teroi,https://www.forestry.gov.my/media/zoo/images/SungaiTeroi_98fb19db4454478fb413efc4ae459407.JPG
7,Jungle Ecological Park,Bukit Mertajam Forest Eco Park,5.3579,100.4932,Lowland Dipterocarp Forest and Hill Dipterocarp Forest,Admission : RM 5.00,Open daily from 7.00 am to 6.00 pm,"Jabatan Perhutanan Negeri, Pulau Pinang, Tingkat 20, Menara KOMTAR, 10300 Pulau Pinang.",04-6505 250,Pulau Pinang,"River, Wildlife, Bird Watching",https://www.forestry.gov.my/en/pulau-pinang/taman-eko-rimba-bukit-mertajam,https://www.forestry.gov.my/media/zoo/images/bukitmertajam_dc6f22497f219ba66a190f9f22049f5a.jpg
8,Jungle Ecological Park,Telok Bahang Forest Eco Park,5.4463,100.2179,Lowland Dipterocarp Forest and Hill Dipterocarp Forest,Admission : RM 5.00,Open daily from 7.00 am to 6.00 pm,"Jabatan Perhutanan Negeri, Pulau Pinang, Tingkat 20, Menara KOMTAR, 10300 Pulau Pinang.",04-6505 250,Pulau Pinang,"River, Wildlife",https://www.forestry.gov.my/en/pulau-pinang/taman-eko-rimba-telok-bahang,https://www.forestry.gov.my/media/zoo/images/telukbahang_4c7bd2daab22eb9cbd0a5ca4bb595e3d.jpg
9,Jungle Ecological Park,Kaki Bukit Larut Forest Eco Park,4.8618,100.761,Hill Dipterocarp Forest,Free admission,Open daily from 8.00 am to 6.00 pm,"Pejabat Hutan Daerah Larut & Matang, 34000 Taiping, Perak.",05-8072 672,Perak,"Wildlife, Bird Watching",https://www.forestry.gov.my/en/perak/taman-eko-rimba-kaki-bukit-larut,https://www.forestry.gov.my/media/zoo/images/bukitlarut2_26169fd5c541272c6e20021175e1ec23.jpg
10,Jungle Ecological Park,Papan Forest Eco Park,4.5383,100.5783,Hill Dipterocarp Forest,Admission | Children below 6 years old - FREE | Children (below 18 years old) RM 1.00 | Adults (18 years old and above) - RM 2.00 | Senior Citizen (60 years old and above / Disabled People) - FREE | Non-citizens - RM 5.00,Open daily from 8.00 am to 6.00 pm,"Pejabat Hutan Daerah Kinta/ Manjung, Jalan Bemban, 31000 Batu Gajah, Perak",05-3661 228,Perak,"River, Bird Watching",https://www.forestry.gov.my/en/perak/taman-eko-rimba-papan,https://www.forestry.gov.my/media/zoo/images/papan2_1aa42ac7fa2c7c639ce214ee486f2387.jpg
11,Jungle Ecological Park,Matang Mangrove Forest Eco-Education Center,4.8402,100.6356,Mangrove Swamp Forest,Admission | Children below 6 years old - FREE | Children (below 18 years old) RM 2.00 | Adults (18 years old and above) - RM 5.00 | Senior Citizen (60 years old and above / Disabled People) - FREE | Non-citizens - RM 15.00,Open daily from 8.00 am to 6.00 pm,"Pejabat Hutan Daerah Larut & Matang, 34000 Taiping, Perak",05-8072 672,Perak,Wildlife,https://www.forestry.gov.my/en/perak/pusat-eko-pelajaran-hutan-paya-laut-matang,https://www.forestry.gov.my/media/zoo/images/lautmatang_7a040224d00927b5b2582a596eeed123.jpg
12,Jungle Ecological Park,Kledang Saiong Forest Eco Park,4.683,100.0676,Dipterocarp Forest,Admission | Children below 6 years old - FREE | Children (below 18 years old) RM 1.00 | Adults (18 years old and above) - RM 2.00 | Senior Citizen (60 years old and above / Disabled People) - FREE | Non-citizens - RM 5.00,Open daily from 8.00 am to 6.00 pm,"Pejabat Hutan Daerah Kinta/ Manjung, Jalan Bemban, 31000 Batu Gajah, Perak",05-3661 228,Perak,"River, Wildlife, Bird Watching",https://www.forestry.gov.my/en/perak/taman-eko-rimba-kledang-saiong,https://www.forestry.gov.my/media/zoo/images/kledang_2909a594ab4b66a6f8319160c011a7e8.jpg
13,Jungle Ecological Park,Kuala Woh Forest Eco Park,4.2434,101.3227,Hill Dipterocarp Forest,Admission | Children below 6 years old - FREE | Children (below 18 years old) RM 1.00 | Adults (18 years old and above) - RM 2.00 | Senior Citizen (60 years old and above / Disabled People) - FREE | Non-citizens - RM 5.00,Open daily from 8.00 am to 6.00 pm,"Pejabat Hutan Daerah Perak Selatan, 35000 Tapah, Perak",05-4011 216,Perak,"River, Bird Watching",https://www.forestry.gov.my/en/perak/taman-eko-rimba-kuala-woh,https://www.forestry.gov.my/media/zoo/images/kualawoh_926d21c819ee47fce5f122f75de0082a.jpg
14,Jungle Ecological Park,Pasir Panjang Forest Eco Park,4.3584,100.5783,Beach Hill Forest,FREE admission,Open daily from 8.00 am to 6.00 pm,"Pejabat Hutan Daerah Kinta/ Manjung, Jalan Bemban, 31000 Batu Gajah, Perak",05-3661 228,Perak,Beach,https://www.forestry.gov.my/en/perak/taman-eko-rimba-pasir-panjang,https://www.forestry.gov.my/media/zoo/images/pasirpanjang_ed27d15d3aa96f1fb8fd3062739ce1b8.jpg
15,Jungle Ecological Park,Lata Kekabu Forest Eco park,5.0506,100.9443,Hill Dipterocarp forest,FREE admission,Open daily from 8.00 am to 6.00 pm,"Pejabat Hutan Daerah Ulu Perak, Jalan Sultan Abdul Aziz, 33300 Gerik, Perak.",05-7912 384,Perak,"River, Waterfall, Wildlife, Bird Watching",https://www.forestry.gov.my/en/perak/taman-eko-rimba-lata-kekabu,https://www.forestry.gov.my/media/zoo/images/kekabu2_2c3c3f4296973006a18f02ceee87612f.jpg
16,Jungle Ecological Park,Ulu Kenas Forest Eco Park,4.6894,100.886,Hill Dipterocarp Forest,Admission | Children below 6 years old - FREE | Children (below 18 years old) RM 1.00 | Adults (18 years old and above) - RM 2.00 | Senior Citizen (60 years old and above / Disabled People) - FREE | Non-citizens - RM 5.00,Open daily from 8.00 am to 6.00 pm,"Pejabat Hutan Daerah Kuala Kangsar, 33000 Kuala Kangsar, Perak",05-7761 089,Perak,"River, Bird Watching",https://www.forestry.gov.my/en/perak/taman-eko-rimba-ulu-kenas,https://www.forestry.gov.my/media/zoo/images/ulukenas_cc6b450e12298654b2c5ac2af76eb379.jpg
17,Jungle Ecological Park,Pulau Tali Kail Forest Eco Park,5.4975,101.3459,Hill Dipterocarp Forest,Admission | Children below 6 years old - FREE | Children (below 18 years old) RM 5.00 | Adults (18 years old and above) - RM 20.00 | Senior Citizen (60 years old and above / Disabled People) - FREE | Non-citizens - RM 50.00,Open daily from 8.00 am to 6.00 pm,"Pejabat Hutan Daerah Ulu Perak, Jalan Sultan Abdul Aziz, 33300 Gerik, Perak.",05-7912 384,Perak,Lake,https://www.forestry.gov.my/en/perak/pulau-tali-kail,https://www.forestry.gov.my/media/zoo/images/talikail2_cf6df97ce014b3e8159aa6027b3055ca.jpg
18,Jungle Ecological Park,Lata Kinjang Forest Eco Park,4.3003,101.2545,Hill Dipterocarp Forest,Admission | Children below 6 years old - FREE | Children (below 18 years old) RM 1.00 | Adults (18 years old and above) - RM 2.00 | Senior Citizen (60 years old and above / Disabled People) - FREE | Non-citizens - RM 5.00,Open daily from 6.00 am to 7.00 pm,"Pejabat Hutan Daerah Perak Selatan, 35000 Tapah, Perak",05-4011 216,Perak,"Waterfall, Bird Watching",https://www.forestry.gov.my/en/perak/taman-eko-rimba-lata-kinjang,https://www.forestry.gov.my/media/zoo/images/latakinjang_60e54a3a661a6a33cd7e1cc335b7d013.jpg
19,Jungle Ecological Park,Ulu Licin Forest Eco Park,4.5379,100.7783,Hill Dipterocarp Forest,FREE admission,Open daily from 8.00 am to 6.00 pm,"Pejabat Hutan Daerah Kinta/ Manjung, Jalan Bemban, 31000 Batu Gajah, Perak",05-3661 228,Perak,"River, Bird Watching",https://www.forestry.gov.my/en/perak/taman-eko-rimba-ulu-licin,https://www.forestry.gov.my/media/zoo/images/ululicin_d025b686c1e07daed3fa99a3d749bafd.jpg
20,Jungle Ecological Park,Bukit Bakar Forest Eco Park,5.7182,102.2598,Hill Dipterocarp Forest,FREE Admission,,"Pejabat Hutan Jajahan, Kelantan Timur, 18500 Machang, Kelantan",09-9751 042,Kelantan,"River, Waterfall",https://www.forestry.gov.my/en/kelantan/taman-eko-rimba-bukit-bakar,https://www.forestry.gov.my/media/zoo/images/bukit-bakar_977054a50ecbd60e58fcc2261aae0100.JPG
21,Jungle Ecological Park,Jeram Linang Forest Eco Park,5.7431,102.3738,Hill Dipterocarp Forest,FREE admission,Open daily from 7.00 am to 6.00 pm,"Pejabat Hutan Jajahan, Kelantan Timur, 18500 Machang, Kelantan",09-9751 042,Kelantan,"River, Waterfall",https://www.forestry.gov.my/en/kelantan/taman-eko-rimba-jeram-linang,https://www.forestry.gov.my/media/zoo/images/jeramlinang_b13adee4fa9e00b36ce4fdb050c28379.JPG
22,Jungle Ecological Park,Air Menderu Forest Eco park,4.4831,103.3871,Hill Dipterocarp Forest,FREE Admission,Open daily from 8.00 am to 5.00 pm,"Pejabat Hutan Daerah Terengganu Selatan, 23000 Dungun, Terengganu.",09-8441 404,Terengganu,"River, Waterfall",https://www.forestry.gov.my/en/terengganu/taman-eko-rimba-air-menderu,https://www.forestry.gov.my/media/zoo/images/menderu2_2a7b7c9d40ba334e9c09559d6b926be3.jpg
23,Jungle Ecological Park,Chemerong Forest Eco Park,4.4914,103.006,Hill Dipterocarp Forest,Admission Fee | Adults : RM 2.00 | Children : RM 1.00 | Senior Citizens/Disabled Persons (OKU) : FREE | Non-Citizen : RM 10.00,Open daily from 8.00 am to 5.00 pm,"Pejabat Hutan Daerah Terengganu Selatan, 23000 Dungun, Terengganu.",09-8441 404,Terengganu,"River, Waterfall",https://www.forestry.gov.my/en/terengganu/taman-eko-rimba-chemerong,https://www.forestry.gov.my/media/zoo/images/chemerong2_b0889e6174a6f2fb00c8aaa299c6515b.jpg
24,Jungle Ecological Park,Lata Belatan Forest Eco Park,5.6399,102.5568,Hill Dipterocarp Forest,Admission Fee | Adults : RM 2.00 | Children : RM 1.00 | Senior Citizens/Disabled Persons (OKU) : FREE | Non-Citizen : RM 10.00,Open daily from 8.00 am to 5.00 pm,"Pejabat Hutan Daerah Terengganu Utara, Batu 6, Jalan Kuala Terengganu, 21200 Kuala Terengganu, Terengganu",09-6667 473,Terengganu,"River, Waterfall",https://www.forestry.gov.my/en/terengganu/taman-eko-rimba-lata-belatan,https://www.forestry.gov.my/media/zoo/images/belatan2_3f926a82a80c5f3089e95cd0af014d59.jpg
25,Jungle Ecological Park,Lata Tembakah Forest Eco Park,5.5899,102.4457,Hill Dipterocarp Forest,Admission Fee | Adults : RM 2.00 | Children : RM 1.00 | Senior Citizens/Disabled Persons (OKU) : FREE | Non-Citizen : RM 10.00,Open daily from 8.00 am to 5.00 pm,"Pejabat Hutan Daerah Terengganu Utara, Batu 6, Jalan Kuala Terengganu, 21200 Kuala Terengganu, Terengganu",09-6667 473,Terengganu,"River, Waterfall",https://www.forestry.gov.my/en/terengganu/taman-eko-rimba-lata-tembakah,https://www.forestry.gov.my/media/zoo/images/tembakah2_1312c3f03e7ed06a46950898bb87e0b2.jpg
26,Jungle Ecological Park,Bukit Bauk Forest Eco park,4.6936,103.4113,Hill Dipterocarp Forest / Dipterocarp Forest / Low Peat Swamp Forest,FREE admission,,"Pejabat Hutan Daerah Terengganu Selatan, 23000 Dungun, Terengganu.",09-8441 404,Terengganu,River,https://www.forestry.gov.my/en/terengganu/taman-eko-rimba-bandar-bukit-bauk,https://www.forestry.gov.my/media/zoo/images/bukitbauk_b1445c4f3c9081c94a20c7b4b391e3f6.jpg
27,Jungle Ecological Park,Sekayu Forest Eco park,4.9636,102.9567,Lowland Dipterocarp Forest,Admission Fee | Adults : RM 2.00 | Children : RM 1.00 | Senior Citizens/Disabled Persons (OKU) : FREE | Non-Citizen : RM 10.00,Open daily from 8.00 am to 5.00 pm,"Pejabat Hutan Daerah Terengganu Barat, 21700 Kuala Berang, Terengganu.",09-6811 259,Terengganu,"River, Waterfall",https://www.forestry.gov.my/en/terengganu/taman-eko-rimba-sekayu,https://www.forestry.gov.my/media/zoo/images/sekayu2_4ce727719944f937270c9aa226dfbe62.jpg
28,Jungle Ecological Park,Sungai Chongkak Forest Eco Park,3.2161,101.8795,Lowland Dipterocarp Forest,Admission Fee | Monday - Friday : Citizens - RM 2.00 / Non-Citizens - RM 8.00 | Saturday - Sunday Public Holidays : Citizens - RM 3.00 / Non-Citizens - RM 8.00,Open daily from 8.00 am to 6.00 pm,"Tourism Selangor, Tingkat 5, Bangunan Darul Ehsan, Jalan Indah, Seksyen 14, Shah Alam, 40000 Selangor, Malaysia.",03-5513 2000,Selangor,"River, Bird Watching",https://www.forestry.gov.my/en/selangor/taman-eko-rimba-sungai-chongkak,https://www.forestry.gov.my/media/zoo/images/sungaichongkak_56ad38a716a76c0430ef8d59812010c1.jpg
29,Jungle Ecological Park,Sungai Tua Forest Eco Park,3.3122,101.6982,Dipterocarp Hill Forest,Admission Fee | Adult : RM 2.00 | Children (12 years old and below) : RM 1.00,Open daily from 8.00 am to 5.00 pm,"Pejabat Hutan Daerah Hulu Selangor, Jalan RP4/1, Kompleks Kerajaan , Rawang Perdana, 48000 Rawang, Selangor.",03-6091 6131,Selangor,River,https://www.forestry.gov.my/en/selangor/taman-eko-rimba-sungai-tua,https://www.forestry.gov.my/media/zoo/images/sungaitua_1f8155ce884062ea6bc4b8998390bcdf.jpg
30,Jungle Ecological Park,Gunung Nuang Forest Eco Park,3.2176,101.89,Dipterocarp Hill Forest,Admission fee | Adults: RM 2.00 | Children (12 years and below): RM 1.00,Open daily from 8.00 am to 5.00 pm,"Pejabat Hutan Daerah Selangor Tengah, VG-03, You Vista, Jalan You Vista, 43200 Cheras, Selangor.",03-9081 6054,Selangor,River,https://www.forestry.gov.my/en/selangor/taman-eko-rimba-gunung-nuang,https://www.forestry.gov.my/media/zoo/images/gunungnuang_b69fc1463894201e256368433e3ac951.jpg
31,Jungle Ecological Park,Sungai Sendat Forest Eco Park,3.4028,101.6847,Dipterocarp Hill Forest,Admission fee | Adults: RM 2.00 | Children (12 years and below): RM 1.00,Open daily from 8.00 am to 5.00 pm,"Pejabat Hutan Daerah Hulu Selangor, Jalan RP4/1, Kompleks Kerajaan , Rawang Perdana, 48000 Rawang, Selangor.",03-6091 6131,Selangor,Waterfall,https://www.forestry.gov.my/en/selangor/taman-eko-rimba-sungai-sendat,https://www.forestry.gov.my/media/zoo/images/sungaisendat_c701428c050160a3a06f29d0a7e04a07.jpg
32,Jungle Ecological Park,Ampang Forest Eco Park,3.1564,101.7984,Lowland Dipterocarp Forest,Admission fee | Adults: RM 2.00 | Children (12 years and below): RM 1.00,Open daily from 8.00 am to 5.00 pm,"Pejabat Hutan Daerah Selangor Tengah, VG-03, You Vista, Jalan You Vista, 43200 Cheras, Selangor.",03-9081 6054,Selangor,"River, Bird Watching",https://www.forestry.gov.my/en/selangor/taman-eko-rimba-ampang,https://www.forestry.gov.my/media/zoo/images/tamanrimbaampang_cd828f3d68975fad6ed0e2ab9404577b.jpg
33,Jungle Ecological Park,Kanching Forest Eco Park,3.31489,101.6203,Dipterocarp Hill Forest,Admission Fee | Monday - Friday : Citizens - RM 2.00 / Non-Citizens - RM 8.00 | Saturday - Sunday Public Holidays : Citizens - RM 3.00 / Non-Citizens - RM 8.00,Open daily from 8.00 am to 6.00 pm,"Tourism Selangor, Tingkat 5, Bangunan Darul Ehsan, Jalan Indah, Seksyen 14, Shah Alam, 40000 Selangor, Malaysia.",03-5513 2000,Selangor,"River, Waterfall",https://www.forestry.gov.my/en/selangor/taman-eko-rimba-kanching,https://www.forestry.gov.my/media/zoo/images/kanching_7efe3d677d63567baf2c36b8dec1f4ea.jpg
34,Jungle Ecological Park,Sungai Tekala Forest Eco Park,3.0715,101.8763,Lowland Dipterocarp Forest,Admission Fee | Adult : RM 2.00 | Children (12 years old and below) : RM 1.00,Open daily from 8.00 am to 6.00 pm,"Pejabat Hutan Daerah Selangor Tengah, VG-03, You Vista, Jalan You Vista, 43200 Cheras, Selangor.",03-9081 6054,Selangor,River,https://www.forestry.gov.my/en/selangor/taman-eko-rimba-sungai-tekala,https://www.forestry.gov.my/media/zoo/images/sungaitekala_dcaefebbb51ecab895b54c0b376f7edd.jpg
35,Jungle Ecological Park,Komenwel Forest Eco Park,3.2962,101.6117,Lowland Dipterocarp Forest,Admission fee | Adults: RM 2.00 | Children (12 years and below): RM 1.00,Open daily from 8.00 am to 5.00 pm,"Pejabat Hutan Daerah Hulu Selangor, Jalan RP4/1, Kompleks Kerajaan , Rawang Perdana, 48000 Rawang, Selangor.",03-6091 6131,Selangor,"River, Waterfall",https://www.forestry.gov.my/en/selangor/taman-eko-rimba-komenwel,https://www.forestry.gov.my/media/zoo/images/komenwel_5302bfaf526248bd98e72b492226b3ed.JPG
36,Jungle Ecological Park,Berkelah Forest Eco Park,3.7331,102.965,Hill Dipterocarp Forest,FREE admission,Open daily from 8.00 am to 5.00 pm,"Pegawai Hutan Daerah Kuantan / Pekan / Maran Bukit Sekilau, 25200 Kuantan, Pahang",09-5133 236,Pahang,"River, Wildlife, Bird Watching",https://www.forestry.gov.my/en/pahang/taman-eko-rimba-berkelah,https://www.forestry.gov.my/media/zoo/images/Berkelah%20(33)_ebaaac2ae7714863e041d7c4586debec.jpg
37,Jungle Ecological Park,Jeriau Forest Eco Park,3.3415,101.8228,Lowland Dipterocarp Forest,Free Admission,Open daily from 8.00 am to 5.00 pm,"Pegawai Hutan Daerah Raub, Rotan Tunggal, 27600 Raub",09-3551 060,Pahang,"River, Waterfall, Wildlife, Bird Watching",https://www.forestry.gov.my/en/pahang/taman-eko-rimba-jeriau,https://www.forestry.gov.my/media/zoo/images/Jeriau%20(22)_7bedd7b74f6ffcd0ad572e60e2f90d78.JPG
38,Jungle Ecological Park,Lata Meraung Forest Eco Park,3.8498,102.2818,Lowland Dipterocarp Forest,FREE admission,Open daily from 8.00 am to 5.00 pm,"Pegawai Hutan Daerah Jerantut, Tingkat 1, Kompleks Pejabat Kerajaan, 27000 Jerantut, Pahang",09-2601 031,Pahang,"River, Waterfall",https://www.forestry.gov.my/en/pahang/taman-eko-rimba-lata-meraung,https://www.forestry.gov.my/media/zoo/images/Meraung%20(8)_859837dc1c3284c08784ee3658c08e89.JPG
39,Jungle Ecological Park,Sungai Pandan Forest Eco Park,3.7998,103.1484,Hill Dipterocarp Forest,FREE admission,Open daily from 8.00 am to 5.00 pm,"Pegawai Hutan Daerah Kuantan / Pekan / Maran Bukit Sekilau, 25200 Kuantan, Pahang",09-5133 236,Pahang,"River, Waterfall, Wildlife, Bird Watching",https://www.forestry.gov.my/en/pahang/taman-eko-rimba-sungai-pandan,https://www.forestry.gov.my/media/zoo/images/Pandan%20(35)_4496a71b21abc9a543791fb51a7c664c.jpg
40,Jungle Ecological Park,Beserah Forest Eco Park,3.8498,103.3483,Lowland Dipterocarp Forest,FREE admission,Open daily from 8.00 am to 5.00 pm,"Pegawai Hutan Daerah Kuantan / Pekan / Maran Bukit Sekilau, 25200 Kuantan, Pahang",09-5133 236,Pahang,"River, Waterfall",https://www.forestry.gov.my/en/pahang/taman-eko-rimba-beserah,https://www.forestry.gov.my/media/zoo/images/Beserah%20(7)_1f30ec38f4ef88825e752f6d0514c0b7.jpg
41,Jungle Ecological Park,Kemasul Forest Eco Park,3.4998,102.2818,Lowland Dipterocarp Forest,Admission | Citizen | Children (below 12 years old) RM 1.50 | Adults - RM 3.00 | Senior Citizen (60 years old and above) - RM 1.50 | Disabled People - FREE | Non-citizen | Children (below 12 years old) RM 5.00 | Adults - RM 10.00 | Senior Citizen (60 years old and above) - RM 10.00 | Disabled People - FREE,,"Pejabat Ladang Hutan Kemasul, Batu 5, Jalan Karak 28400 Mentakab, Pahang",09-2771 447,Pahang,Lake,https://www.forestry.gov.my/en/pahang/taman-eko-rimba-kemasul,https://www.forestry.gov.my/media/zoo/images/Kemasul%20(32)_2da2dec29c996e558b2ce2a02bc28098.JPG
42,Jungle Ecological Park,Sungai Pauh Forest Eco Park,4.483,101.3819,Hill Dipterocarp Forest,Admission | Citizen | Adults (13-59 years old ) - RM 3.00 | Childrens (under 12 years old) - RM 1.50 | Senior Citizen (60 years old and above) - RM 1.50 | Disabled People - FREE | Non-citizen | Adults (13-59 years old ) - RM 10.00 | Childrens (under 12 years old) - RM 5.00 | Senior Citizen (60 years old and above) - RM 10.00 | Disabled People - FREE,Open daily from 8.00 am to 5.00 pm,"Pegawai Hutan Daerah Cameron Highlands, Tanah Rata, 39000 Cameron Highlands",05-4911 384,Pahang,River,https://www.forestry.gov.my/en/pahang/taman-eko-rimba-sungai-pauh,https://www.forestry.gov.my/media/zoo/images/Sg-Pauh-8_42d91bf40711d89b62ca6eec7b66a341.JPG
43,Jungle Ecological Park,Bukit Bertangga Forest Eco Park,3.2998,102.6651,Lowland Hill Dipterocarp Forest,FREE admission,Open daily from 8.00 am to 5.00 pm,"Pegawai Hutan Daerah Temerloh / Bera 28000 Termeloh, Pahang",09-2962 755,Pahang,"River, Waterfall, Bird Watching",https://www.forestry.gov.my/en/pahang/taman-eko-rimba-bukit-bertangga,https://www.forestry.gov.my/media/zoo/images/Bukit%20Bertangga%20(22)_246e9e6a1e5f766d80c88897c5f3cb00.JPG
44,Jungle Ecological Park,Kem Nusa Forest Eco Park,4.4432,102.3716,Lowland Dipterocarp Forest,The fee charged is subject to the private manager/operator,Open daily from 8.00 am to 5.00 pm,"Pegawai Hutan Daerah Jerantut, Tingkat 1, Kompleks Pejabat Kerajaan, 27000 Jerantut, Pahang",09-2601 031,Pahang,"River, Waterfall, Wildlife, Bird Watching",https://www.forestry.gov.my/en/pahang/taman-eko-rimba-kem-nusa,https://www.forestry.gov.my/media/zoo/images/Kem%20Nusa%20(8)_20bbba8b0b99af7fca77cec4e3aa64a7.JPG
45,Jungle Ecological Park,Lubuk Yu Forest Eco Park,3.7531,102.6525,Lowland Dipterocarp Forest,The fee charged is subject to the private manager/operator,Open daily from 8.00 am to 5.00 pm,"Pejabat Hutan Daerah Temerloh/Bera, 28000 Temerloh, Pahang",09-2962 755,Pahang,"River, Waterfall, Bird Watching",https://www.forestry.gov.my/en/pahang/taman-eko-rimba-lubuk-yu,https://www.forestry.gov.my/media/zoo/images/Lubuk%20Yu%20(12)_6f55f396125604ea52b7a7dc771aba47.JPG
46,Jungle Ecological Park,Teladas Forest Eco Park,3.7673,102.7673,Hill Dipterocarp Forest,FREE admission,Open daily from 8.00 am to 5.00 pm,"Pegawai Hutan Daerah Kuantan / Pekan / Maran Bukit Sekilau, 25200 Kuantan, Pahang",09-5133 236,Pahang,"River, Waterfall, Bird Watching",https://www.forestry.gov.my/en/pahang/taman-eko-rimba-teladas,https://www.forestry.gov.my/media/zoo/images/Teladas-16_13affbf8b137bb10d0723bc247910fc7.JPG
47,Jungle Ecological Park,Konifer Forest Eco Park,3.3415,101.8228,,Free admission,,"Pegawai Hutan Daerah Bentong, JKR 241, Jalan Bukit, 28700 Bentong, Pahang",09-2221 039,Pahang,"Wildlife, Bird Watching",https://www.forestry.gov.my/en/pahang/taman-eko-rimba-konifer,https://www.forestry.gov.my/media/zoo/images/Konifer%20(28)_9fc99ac25aa71e446d3d72f09a5218d4.JPG
48,Jungle Ecological Park,Menchali Forest Eco Park,2.8998,103.415,Hill Dipterocarp Forest and Peat Swamp Forest,Free Admission,Open daily from 8.00 am to 5.00 pm,"Pejabat Hutan Daerah Rompin, 26800 Kuala Rompin, Pahang",09-4145 204,Pahang,,https://www.forestry.gov.my/en/pahang/taman-eko-rimba-menchali,https://www.forestry.gov.my/media/zoo/images/Menchali%20(1)_cbe24c2e9afaff01c1f7962b8af9e598.JPG
49,Jungle Ecological Park,Terenggun Forest Eco Park,4.1664,101.9818,Hill Dipterocarp Forest,FREE admissin,Open daily from 8.00 am to 5.00 pm,"Pegawai Hutan Daerah Lipis 27200 Kuala Lipis, Pahang",09-3101 550,Pahang,"River, Wildlife, Lake, Bird Watching",https://www.forestry.gov.my/en/pahang/taman-eko-rimba-terenggun,https://www.forestry.gov.my/media/zoo/images/Terenggun-48_fe2376f3abafecb70c9996c792e544cf.JPG
50,Jungle Ecological Park,Chamang Forest Eco Park,3.3831,101.8818,Hill Dipterocarp Forest,Admission | Citizen | Adults (13-59 years old ) - RM 3.00 | Childrens (under 12 years old) - RM 1.50 | Senior Citizen (60 years old and above) - RM 1.50 | Disabled People - FREE | Non-citizen | Adults (13-59 years old ) - RM 10.00 | Childrens (under 12 years old) - RM 5.00 | Senior Citizen (60 years old and above) - RM 10.00 | Disabled People - FREE,Open daily from 8.00 am to 5.00 pm,"Pegawai Hutan Daerah Bentong, JKR 241, Jalan Bukit, 28700 Bentong, Pahang",09-2221 039,Pahang,"River, Waterfall, Wildlife, Bird Watching",https://www.forestry.gov.my/en/pahang/taman-eko-rimba-chamang,https://www.forestry.gov.my/media/zoo/images/Chamang%20(10)_d4f9d7ed3cc79adf5be34eb0e0a4f7d2.JPG
51,Jungle Ecological Park,Lata Berembun Forest Eco Park,3.7757,102.056,Hill Dipterocarp Forest,FREE admission,Open daily from 8.00 am to 5.00 pm,"Pegawai Hutan Daerah Raub,  Rotan Tunggal, 27600 Raub",09-3551 060,Pahang,"River, Waterfall, Wildlife, Bird Watching",https://www.forestry.gov.my/en/pahang/taman-eko-rimba-lata-berembun,https://www.forestry.gov.my/media/zoo/images/lata%20berembun_553569653db1949db039015b2a972bca.jpg
52,Jungle Ecological Park,Ulu Jerangsang Forest Eco Park,3.9831,102.0652,Hill Dipterocarp Forest,FREE admission,Open daily from 8.00 am to 5.00 pm,"Pegawai Hutan Daerah Lipis 27200 Kuala Lipis, Pahang",09-3101 550,Pahang,"River, Waterfall, Wildlife, Bird Watching",https://www.forestry.gov.my/en/pahang/taman-eko-rimba-ulu-jerangsang,https://www.forestry.gov.my/media/zoo/images/Jerangsang%20(12)_8dcc1812bd4a7f9a70ee764e7e2d6bed.JPG
53,Jungle Ecological Park,Gunung Senyum Forest Eco Park,3.6998,102.1485,Lowland Forest,Admission | Citizen | Adults (13-59 years old) - RM 3.00 | Children (below 12 years old) - RM 1.50 | Senior Citizen (60 years old and above) - RM 1.50 | Disabled People - FREE | Non-citizen | Adults (13-59 years old) - RM 10.00 | Children (below 12 years old) - RM 5.00 | Senior Citizen (60 years old and above) - RM 10.00 | Disabled People - FREE,Open daily from 8.00 am to 5.00 pm,"Pegawai Hutan Daerah Temerloh / Bera 28000 Temerloh, Pahang",09-2962 755,Pahang,"Cave, Wildlife, Lake, Bird Watching",https://www.forestry.gov.my/en/pahang/taman-eko-rimba-gunung-senyum,https://www.forestry.gov.my/media/zoo/images/GunungSenyum%20(5)_5d141e3a73bcbbcc8e0c24b9d3db53b5.JPG
54,Jungle Ecological Park,Lata Jarum Forest Eco Park,4.0399,101.9084,Lowland Dipterocarp Forest,FREE admission Open daily from 8.00 am to 5.00 pm,Open daily from 8.00 am to 5.00 pm,"Pegawai Hutan Daerah, Pejabat Hutan Daerah Raub, Rotan Tunggal 27600 Raub",09-3551 060,Pahang,"River, Waterfall, Wildlife, Bird Watching",https://www.forestry.gov.my/en/pahang/taman-eko-rimba-lata-jarum,https://www.forestry.gov.my/media/zoo/images/Lata%20Jarum%20(17)_56d8c1f9b8358722b1d8d6b4d8240df8.jpg
55,Jungle Ecological Park,Ulu Tembeling Forest Eco Park,4.4497,102.4984,Hill Dipterocarp Forest,FREE admission,Open daily from 8.00 am to 5.00 pm,"Pegawai Hutan Daerah Jerantut Tingkat 1, Kompleks Pejabat Kerajaan 27000 Jerantut, Pahang",09-2601 031,Pahang,"River, Wildlife, Bird Watching",https://www.forestry.gov.my/en/pahang/taman-eko-rimba-ulu-tembeling,https://www.forestry.gov.my/media/zoo/images/Ulu-Tembeling-15_d69053bfd3c90e4f2144ddf06bee594a.JPG
56,Jungle Ecological Park,Jerangkang Forest Eco Park,3.7701,102,Hill Dipterocarp Forest,FREE admission,Open daily from 8.00 am to 5.00 pm,"Pegawai Hutan Daerah Kuantan / Pekan / Maran Bukit Sekilau, 25200 Kuantan, Pahang",09-5133 236,Pahang,"River, Waterfall, Wildlife, Bird Watching",https://www.forestry.gov.my/en/pahang/taman-eko-rimba-jerangkang,https://www.forestry.gov.my/media/zoo/images/Jerangkang%20(23)_6b5c1c1713fb8e38c53c531c8a7fab57.JPG
57,Jungle Ecological Park,Lata Lembik Forest Eco Park,3.9817,101.6504,,FREE admission,Open daily from 8.00 am to 5.00 pm,"Pegawai Hutan Raub, Rotan Tunggal, 27600 Raub",09-3551 060,Pahang,"River, Waterfall, Wildlife, Bird Watching",https://www.forestry.gov.my/en/pahang/taman-eko-rimba-lata-lembik,https://www.forestry.gov.my/media/zoo/images/Lata%20Lembik%20(36)_1cdfce9c31a86568b8f67e198c5b903d.JPG
58,Jungle Ecological Park,Som Forest Eco Park,3.7664,102.9317,Lowland Dipterocarp Forest,FREE admission,,"Pegawai Hutan Daerah Jerantut, Tingkat 1, Kompleks Pejabat Kerajaan, 27000 Temerloh, Pahang",09-2601 031,Pahang,Bird Watching,https://www.forestry.gov.my/en/pahang/taman-eko-rimba-som,https://www.forestry.gov.my/media/zoo/images/Som-27_a6af99138932faee0073aa8e48f6d8fd.JPG
59,Jungle Ecological Park,Kenong Forest Eco Park,4.2164,102.1818,Lowland Dipterocarp Forest,The fee charged is subject to the private manager/operator,,"Pegawai Hutan Daerah Lipis 27200 Kuala Lipis, Pahang",09-3101 550,Pahang,"River, Waterfall, Cave, Wildlife, Lake",https://www.forestry.gov.my/en/pahang/taman-eko-rimba-kenong,https://www.forestry.gov.my/media/zoo/images/Rimba-Kenong-23_c2bb6e44a27be05704be2a2e61349db5.JPG
60,Jungle Ecological Park,Lentang Forest Eco Park,5.4463,100.2179,Hill Dipterocarp Forest,Fees admission | Citizen | Adults (13-59 years old ) - RM 3.00 | Childrens (under 12 years old) - RM 1.50 | Senior Citizen (60 years old and above) - RM 1.50 | Disabled People - FREE | Non-citizen | Adults (13-59 years old ) - RM 10.00 | Childrens (under 12 years old) - RM 5.00 | Senior Citizen (60 years old and above) - RM 10.00 | Disabled People - FREE,Open daily from 8.00 am to 5.00 pm,"Pegawai Hutan Daerah Bentong, JKR 241, Jalan Bukit, 28700 Bentong, Pahang",09-2221 039,Pahang,"River, Wildlife, Bird Watching",https://www.forestry.gov.my/en/pahang/taman-eko-rimba-lentang,https://www.forestry.gov.my/media/zoo/images/Lentang%20(24)_a1eb0fa64eea783a9a2dbb44252b448a.JPG
61,Jungle Ecological Park,Batu Maloi Forest Eco Park,2.5375,102.2231,Open Forest,FREE Admission,Monday to Sunday : 8.00 am - 5.00 pm,"Pejabat Hutan Daerah Negeri Sembilan Barat, Tingkat 2, Kompleks Persiaran Daerah Seremban, Persiaran 2, 70990 Seremban.",06-6014 000,Negeri Sembilan,"Cave, Wildlife",https://www.forestry.gov.my/en/negeri-sembilan/taman-eko-rimba-batu-maloi,https://www.forestry.gov.my/media/zoo/images/Batu-maloi_6c5e1f663adea4ed0bfc877719c95175.jpg
62,Jungle Ecological Park,Gunung Tampin Forest Eco Park,2.3022,102.1298,Open Forest,FREE Admission,Monday to Sunday : 8.00 am - 5.00 pm,"Pejabat Hutan Daerah, Negeri Sembilan Barat, Tingkat 2, Kompleks Pentadbiran Daerah Seremban, Persiaran S2 A2, 70300 Seremban",06-6014 000,Negeri Sembilan,Wildlife,https://www.forestry.gov.my/en/negeri-sembilan/taman-eko-rimba-gunung-tampin,https://www.forestry.gov.my/media/zoo/images/gunung-tampin_3e455bc14a4d4ffd6ae7015386b43fd7.JPG
63,Jungle Ecological Park,Lata Kijang Forest Eco Park,2.9721,102.3673,Hill Dipterocarp Forest,FREE Admission,Open from 7.00 am to 6.00 pm,"Pejabat Hutan Daerah, Negeri Sembilan Barat, Tingkat 2, Kompleks Pentadbiran Daerah Seremban, Persiaran S2 A2, 70300 Seremban",06-6014 000,Negeri Sembilan,"River, Waterfall, Wildlife, Bird Watching",https://www.forestry.gov.my/en/negeri-sembilan/taman-eko-rimba-lata-kijang,https://www.forestry.gov.my/media/zoo/images/lata-kijang_414ed9c2db80614e13f58834d651633e.JPG
64,Jungle Ecological Park,Serting Ulu Forest Eco Park,2.8596,102.0131,Open Forest,FREE Admission,Monday to Sunday : 8.00 am - 5.00 pm,"Pejabat Hutan Daerah, Negeri Sembilan Timur, 72000 Kuala Pilah, Negeri Sembilan.",06-7659 849,Negeri Sembilan,"River, Wildlife",https://www.forestry.gov.my/en/negeri-sembilan/taman-eko-rimba-serting-ulu,https://www.forestry.gov.my/media/zoo/images/serting-ulu-3_bfcb70f7ed3198e54f587a1e181e476e.jpg
65,Jungle Ecological Park,De Bana Forest Eco Park,2.9721,102.3673,Open Forest,FREE Admission,Monday to Sunday : 8.00 am - 5.00 pm,"Pejabat Hutan Daerah, Negeri Sembilan Timur, 72000 Kuala Pilah, Negeri Sembilan.",06-4811 036,Negeri Sembilan,"River, Waterfall, Wildlife",https://www.forestry.gov.my/en/negeri-sembilan/taman-eko-rimba-de-bana,https://www.forestry.gov.my/media/zoo/images/de-bana-2_98c155900218165b71da73d4d5903497.jpg
66,Jungle Ecological Park,Jeram Tengkek Forest Eco Park,2.8687,102.1842,Open Forest,FREE Admission,Monday to Sunday : 8.00 am - 5.00 pm,"Pejabat Hutan Daerah, Negeri Sembilan Timur, 72000 Kuala Pilah, Negeri Sembilan.",06-4811 036,Negeri Sembilan,"River, Waterfall, Wildlife",https://www.forestry.gov.my/en/negeri-sembilan/taman-eko-rimba-jeram-tengkek,https://www.forestry.gov.my/media/zoo/images/jeram-tengkek-1_a785867bfeb3eeb285de58c273cea994.jpg
67,Jungle Ecological Park,Lenggeng Forest Eco Park,2.5438,102.171,Open Forest,FREE Admission,Monday to Sunday : 8.00 am - 5.00 pm,"Pejabat Hutan Daerah, Negeri Sembilan Barat, Tingkat 2, Kompleks Pentadbiran Daerah Seremban, Persiaran S2 A2, 70300 Seremban",06-6014 000,Negeri Sembilan,"River, Wildlife",https://www.forestry.gov.my/en/negeri-sembilan/taman-eko-rimba-lenggeng,https://www.forestry.gov.my/media/zoo/images/lenggeng-1_e4ea5fbcb99f397b1d438cd63d43f9c5.jpg
68,Jungle Ecological Park,Ulu Bendul Forest Eco Park,2.7304,102.0806,Open Forest,FREE Admission,Monday to Sunday : 8.00 am - 5.00 pm,"Pejabat Hutan Daerah, Negeri Sembilan Timur, 72000 Kuala Pilah, Negeri Sembilan.",06-4811 036,Negeri Sembilan,"River, Wildlife",https://www.forestry.gov.my/en/negeri-sembilan/taman-eko-rimba-ulu-bendul,https://www.forestry.gov.my/media/zoo/images/ulu-bendul_f24051de5a2f693b0436df082f352e6e.JPG
69,Jungle Ecological Park,Gunung Datuk Forest Eco Park,2.5438,102.171,Open Forest,FREE Admission,Monday to Sunday : 8.00 am - 5.00 pm,"Pejabat Hutan Daerah, Negeri Sembilan Barat, Tingkat 2, Kompleks Pentadbiran Daerah Seremban, Persiaran S2 A2, 70300 Seremban",06-6014 000,Negeri Sembilan,"River, Wildlife",https://www.forestry.gov.my/en/negeri-sembilan/taman-eko-rimba-gunung-datuk,https://www.forestry.gov.my/media/zoo/images/gunungdato_3c306c3bb9cf28efa6b50e7ca3a1b7bc.JPG
70,Jungle Ecological Park,Bukit Batu Lebah Forest Eco Park,,,Lowland Dipterocarp Forest,FREE admission,Open daily from 7.00 am to 6.00 pm,"Pejabat Hutan Daerah Melaka, 75459 Air Keroh, Melaka.",06-2316 095,Melaka,Cave,https://www.forestry.gov.my/en/melaka/taman-eko-rimba-bukit-batu-lebah,https://www.forestry.gov.my/media/zoo/images/batu-lebah_041964e8a89dc2bf6b8616a4e4d9b180.JPG
71,Jungle Ecological Park,Sungai Udang Forest Eco Park,2.3022,102.1298,Lowland Dipterocarp Forest,FREE admission,Open daily from 7.00 am to 7.00 pm,"Jabatan Perhutanan Negeri Melaka, 75450 Ayer Keroh, Melaka.",06-2316 095,Melaka,"Lake, Bird Watching",https://www.forestry.gov.my/en/melaka/taman-eko-rimba-sungai-udang,https://www.forestry.gov.my/media/zoo/images/sungaiudang_a69f2cb84924a17276cbb6279b935ea0.JPG
72,Jungle Ecological Park,Gunung Arong Forest Eco Park,2.5529,103.7549,Lowland Dipterocarp Forest,FREE Admission,Tuesday to Sunday : 8.00 am - 5.00 pm,"Pejabat Hutan Daerah Johor Timur, Pejabat Am, Aras 3, Kompleks Pejabat-Pejabat Kerajaan, Jalan Ibrahim, 86800 Mersing, Johor",07-7981 030,Johor,River,https://www.forestry.gov.my/en/johor/taman-eko-rimba-gunung-arong,https://www.forestry.gov.my/media/zoo/images/gunungarong_b262bdfee6febf1b069b0b487e158ab7.JPG
73,Jungle Ecological Park,Gunung Belumut Forest Eco Park,2.0666,103.5255,Hill Dipterocarp Forest,FREE Admission,Tuesday - Sunday : 8.00 am to 4.30 pm,"Pejabat Hutan Daerah Johor Tengah, Pejabat Am, Bangunan Kerajaan, 86000 Kluang, Johor",07-7725 944,Johor,"River, Waterfall",https://www.forestry.gov.my/en/johor/taman-eko-rimba-gunung-belumut,https://www.forestry.gov.my/media/zoo/images/gunungbelumut_13730751c548027f835c10b90f77d0b5.jpg
74,Jungle Ecological Park,Gunung Pulai II Forest Eco Park,1.590507,103.5185,Hill Dipterocarp Forest,FREE Admission,Tuesday to Friday : 8.00 am - 5.00 pm,"Pejabat Hutan Daerah Johor Selatan, JKR 35, Jalan Bukit Timbalan, 80000 Johor Bahru, Johor.",07-2242 211,Johor,"River, Waterfall",https://www.forestry.gov.my/en/johor/taman-eko-rimba-gunung-pulai,https://www.forestry.gov.my/media/zoo/images/Gunung-Pulai_fe8eaacd22bbfcd61f7d2ce8860de5c1.jpg
75,Jungle Ecological Park,Gunung Pulai II Forest Eco Park,1.5722,103.513,Hill Dipterocarp Forest,FREE Admission,Tuesday to Friday : 8.00 am - 5.00 pm,"Pejabat Hutan Daerah Johor Selatan, JKR 35, Jalan Bukit Timbalan, 80000 Johor Bahru, Johor.",07-2242 211,Johor,River,https://www.forestry.gov.my/en/johor/taman-eko-rimba-gunung-pulai-2,https://www.forestry.gov.my/media/zoo/images/Gunung-Pulai_fe8eaacd22bbfcd61f7d2ce8860de5c1.jpg
76,Jungle Ecological Park,Panti Forest Eco Park,1.7882,103.9424,Lowland Dipterocarp Forest,FREE Admisssion,Tuesday to Sunday : 8.00 am to 4.30 pm,"Pejabat Hutan Daerah Johor Selatan, JKR 35, Jalan Bukit Timbalan, 80000 Johor Bahru, Johor.",07-2242 211,Johor,"River, Bird Watching",https://www.forestry.gov.my/en/johor/taman-eko-rimba-panti,https://www.forestry.gov.my/media/zoo/images/panti_77d0328b54468df648bb12cbe0d83535.JPG
77,Jungle Ecological Park,Sungai Bantang Forest Eco Park,2.3463,103.1572,Lowland Dipterocarp Forest,FREE Admission,Tuesday to Sunday : 8.00 am - 5.00 pm,"Pejabat Hutan Daerah Johor Utara, Pejabat Am, Jalan Awang, 85000 Segamat, Johor.",07-9312 141,Johor,"River, Waterfall",https://www.forestry.gov.my/en/johor/taman-eko-rimba-sungai-bantang,https://www.forestry.gov.my/media/zoo/images/sungaibantang_da066ac7e8ba0d5ddb6875d9926c5d1f.jpg
78,National Forest Park,Bukit Panchor State Park,5.1602,100.548,Lowland Dipterocarp Forest,FREE Admission,Open daily from 7.00 am to 6.00 pm,"Jabatan Perhutanan Negeri, Pulau Pinang, Tingkat 20, Menara KOMTAR, 10300 Pulau Pinang.",04-6505 250,Pulau Pinang,"River, Cave, Wildlife, Bird Watching",https://www.forestry.gov.my/en/semenanjung-malaysia/taman-negeri-bukit-panchor,https://www.forestry.gov.my/media/zoo/images/bukitpanchor_894e2f3b6f0ae72686a417c07023cb28.jpg
79,National Forest Park,Gunung Stong State Forest Park,5.3396,101.9749,Hill and mountain dipterocarp forest,Admission : RM 5.00 / person / month or part thereof,,"Pegawai Hutan Jajahan, Kelantan Barat, 17500 Tanah Merah, Kelantan",09-9556 055,Kelantan,"River, Waterfall, Wildlife, Bird Watching",https://www.forestry.gov.my/en/semenanjung-malaysia/hutan-taman-negeri-gunung-stong,https://www.forestry.gov.my/media/zoo/images/HTN_gunung_stong_d7ff20e2b40ce139061856f89066b251.jpg
80,National Forest Park,Perlis State Park,6.697,100.1901,Mid-Autumn Forest / Lowland Dipterocarp Forest / Hill Dipterocarp Forest,Admission | Perlis National Park Ecotourism Complex Wang Kelian | Citizens | Adults RM 2.00 | Children 6-17 years old RM 1.00 | Children under 6 years old FREE | People with Disabilities OKU FREE | Non-citizens | Adults RM 5.00 | Children 6-17 years old RM 3.00 | Children 6-17 years old FREE | People with Disabilities OKU FREE | Wang Kelian Perlis Viewpoint | Citizens | Adults RM 2.00 | Children 6-17 years old RM 1.00 | Children under 6 years old FREE | People with Disabilities OKU FREE | Non-citizens | Adults RM 5.00 | Children 6-17 years old RM 3.00 | Children 6-17 years old FREE | People with Disabilities OKU FREE | Gua Kelam Ecotourism Complex | Citizens | Adults RM 2.00 | Children 6-17 years old RM 1.00 | Children under 6 years old FREE | People with Disabilities OKU FREE | Non-citizens | Adults RM 5.00 | Children 6-17 years old RM 3.00 | Children 6-17 years old FREE | People with Disabilities OKU FREE,Open daily from 9.00 am to 6.00 pm,"Jabatan Perhutanan Negeri Perlis,Km 2 Jalan Kaki Bukit, 01000 Kangar, Perlis",04-9765 966,Perlis,"River, Cave, Wildlife, Bird Watching",https://www.forestry.gov.my/en/semenanjung-malaysia/taman-negeri-perlis,https://www.forestry.gov.my/media/zoo/images/tamannegeriperlis_eed50c45c2bf5e13a300b921ce074071.jpg
81,National Forest Park,Rompin State Park,2.8832,102.9984,Lowland Dipterocarp Forest,Admission (subject to private managers/operators) | Citizen | Adults (13-59 years old ) - RM 30.00 | Childrens (3-12 years old) - RM 10.00 | Senior Citizen (60 years old and above) - RM 15.00 | Disabled People - FREE | Student (groups of more than 30 people) - RM 100.00 | Non-citizen | Adults (13-59 years old ) - RM 50.00 | Childrens (3-12 years old) - RM 30.00 | Senior Citizen (60 years old and above) - RM 15.00 | Disabled People - FREE || Student (groups of more than 30 people) - RM 200.00,Open daily from 8.00 am to 5.00 pm,"Pegawai Hutan Daerah Rompin, 26800 Kuala Rompin, Pahang",09-4145 204,Pahang,"River, Waterfall",https://www.forestry.gov.my/en/semenanjung-malaysia/taman-negeri-endau-rompin,https://www.forestry.gov.my/media/zoo/images/HTN_rompin_3255dda5d5eabdf8cab369de74548736.jpg
